{
  "links" : {
    "next" : "https://api.nasa.gov/neo/rest/v1/feed?start_date=2013-05-16&end_date=2013-05-16&detailed=true&api_key=t0TVs3DtDT2H8Oy2Zy8m2eVrNsAVKAexjcZXUckd",
    "prev" : "https://api.nasa.gov/neo/rest/v1/feed?start_date=2013-05-14&end_date=2013-05-14&detailed=true&api_key=t0TVs3DtDT2H8Oy2Zy8m2eVrNsAVKAexjcZXUckd",
    "self" : "https://api.nasa.gov/neo/rest/v1/feed?start_date=2013-05-15&end_date=2013-05-15&detailed=true&api_key=t0TVs3DtDT2H8Oy2Zy8m2eVrNsAVKAexjcZXUckd"
  },
  "element_count" : 4,
  "near_earth_objects" : {
    "2013-05-15" : [ {
      "links" : {
        "self" : "https://api.nasa.gov/neo/rest/v1/neo/2251722?api_key=t0TVs3DtDT2H8Oy2Zy8m2eVrNsAVKAexjcZXUckd"
      },
      "neo_reference_id" : "2251722",
      "name" : "251722 (1997 US2)",
      "nasa_jpl_url" : "http://ssd.jpl.nasa.gov/sbdb.cgi?sstr=2251722",
      "absolute_magnitude_h" : 19.7,
      "estimated_diameter" : {
        "kilometers" : {
          "estimated_diameter_min" : 0.3051792326,
          "estimated_diameter_max" : 0.6824015094
        },
        "meters" : {
          "estimated_diameter_min" : 305.1792325939,
          "estimated_diameter_max" : 682.4015094011
        },
        "miles" : {
          "estimated_diameter_min" : 0.1896295249,
          "estimated_diameter_max" : 0.4240245083
        },
        "feet" : {
          "estimated_diameter_min" : 1001.2442334633,
          "estimated_diameter_max" : 2238.8501681036
        }
      },
      "is_potentially_hazardous_asteroid" : true,
      "close_approach_data" : [ {
        "close_approach_date" : "2013-05-15",
        "epoch_date_close_approach" : 1368601200000,
        "relative_velocity" : {
          "kilometers_per_second" : "13.1166943561",
          "kilometers_per_hour" : "47220.0996819568",
          "miles_per_hour" : "29340.7336051581"
        },
        "miss_distance" : {
          "astronomical" : "0.2816384459",
          "lunar" : "109.5573577881",
          "kilometers" : "42132512",
          "miles" : "26179930"
        },
        "orbiting_body" : "Earth"
      } ],
      "orbital_data" : {
        "orbit_id" : "40",
        "orbit_determination_date" : "2017-04-06 09:24:49",
        "orbit_uncertainty" : "0",
        "minimum_orbit_intersection" : ".00609637",
        "jupiter_tisserand_invariant" : "3.957",
        "epoch_osculation" : "2458000.5",
        "eccentricity" : ".6613684526258795",
        "semi_major_axis" : "1.674268443567388",
        "inclination" : "3.17055136591068",
        "ascending_node_longitude" : "66.01080685054272",
        "orbital_period" : "791.2907055024157",
        "perihelion_distance" : ".566960113764885",
        "perihelion_argument" : "100.1996448427643",
        "aphelion_distance" : "2.781576773369892",
        "perihelion_time" : "2457971.912432618137",
        "mean_anomaly" : "13.00599664056008",
        "mean_motion" : ".4549528984691214",
        "equinox" : "J2000"
      }
    }, {
      "links" : {
        "self" : "https://api.nasa.gov/neo/rest/v1/neo/3527904?api_key=t0TVs3DtDT2H8Oy2Zy8m2eVrNsAVKAexjcZXUckd"
      },
      "neo_reference_id" : "3527904",
      "name" : "(2010 LF14)",
      "nasa_jpl_url" : "http://ssd.jpl.nasa.gov/sbdb.cgi?sstr=3527904",
      "absolute_magnitude_h" : 23.7,
      "estimated_diameter" : {
        "kilometers" : {
          "estimated_diameter_min" : 0.0483676488,
          "estimated_diameter_max" : 0.1081533507
        },
        "meters" : {
          "estimated_diameter_min" : 48.3676488219,
          "estimated_diameter_max" : 108.1533506775
        },
        "miles" : {
          "estimated_diameter_min" : 0.0300542543,
          "estimated_diameter_max" : 0.0672033557
        },
        "feet" : {
          "estimated_diameter_min" : 158.6865169607,
          "estimated_diameter_max" : 354.8338390368
        }
      },
      "is_potentially_hazardous_asteroid" : false,
      "close_approach_data" : [ {
        "close_approach_date" : "2013-05-15",
        "epoch_date_close_approach" : 1368601200000,
        "relative_velocity" : {
          "kilometers_per_second" : "5.777254453",
          "kilometers_per_hour" : "20798.1160308604",
          "miles_per_hour" : "12923.1404859532"
        },
        "miss_distance" : {
          "astronomical" : "0.0960334161",
          "lunar" : "37.3569984436",
          "kilometers" : "14366395",
          "miles" : "8926864"
        },
        "orbiting_body" : "Earth"
      } ],
      "orbital_data" : {
        "orbit_id" : "17",
        "orbit_determination_date" : "2017-04-06 08:57:24",
        "orbit_uncertainty" : "0",
        "minimum_orbit_intersection" : ".0822659",
        "jupiter_tisserand_invariant" : "3.626",
        "epoch_osculation" : "2458000.5",
        "eccentricity" : ".4714153629326114",
        "semi_major_axis" : "2.069715063392364",
        "inclination" : "1.621218615701771",
        "ascending_node_longitude" : "256.504247353936",
        "orbital_period" : "1087.587650571727",
        "perihelion_distance" : "1.09401958561616",
        "perihelion_argument" : "345.8464351947244",
        "aphelion_distance" : "3.045410541168568",
        "perihelion_time" : "2457520.731767490993",
        "mean_anomaly" : "158.8070291276736",
        "mean_motion" : ".331007804116527",
        "equinox" : "J2000"
      }
    }, {
      "links" : {
        "self" : "https://api.nasa.gov/neo/rest/v1/neo/3638287?api_key=t0TVs3DtDT2H8Oy2Zy8m2eVrNsAVKAexjcZXUckd"
      },
      "neo_reference_id" : "3638287",
      "name" : "(2013 JL14)",
      "nasa_jpl_url" : "http://ssd.jpl.nasa.gov/sbdb.cgi?sstr=3638287",
      "absolute_magnitude_h" : 24.5,
      "estimated_diameter" : {
        "kilometers" : {
          "estimated_diameter_min" : 0.0334622374,
          "estimated_diameter_max" : 0.0748238376
        },
        "meters" : {
          "estimated_diameter_min" : 33.4622374455,
          "estimated_diameter_max" : 74.8238376074
        },
        "miles" : {
          "estimated_diameter_min" : 0.0207924639,
          "estimated_diameter_max" : 0.0464933628
        },
        "feet" : {
          "estimated_diameter_min" : 109.7842471007,
          "estimated_diameter_max" : 245.4850393757
        }
      },
      "is_potentially_hazardous_asteroid" : false,
      "close_approach_data" : [ {
        "close_approach_date" : "2013-05-15",
        "epoch_date_close_approach" : 1368601200000,
        "relative_velocity" : {
          "kilometers_per_second" : "14.2033604076",
          "kilometers_per_hour" : "51132.0974672016",
          "miles_per_hour" : "31771.496895662"
        },
        "miss_distance" : {
          "astronomical" : "0.0389122281",
          "lunar" : "15.1368570328",
          "kilometers" : "5821186.5",
          "miles" : "3617117.75"
        },
        "orbiting_body" : "Earth"
      } ],
      "orbital_data" : {
        "orbit_id" : "7",
        "orbit_determination_date" : "2017-04-06 08:45:55",
        "orbit_uncertainty" : "7",
        "minimum_orbit_intersection" : ".0382281",
        "jupiter_tisserand_invariant" : "6.388",
        "epoch_osculation" : "2458000.5",
        "eccentricity" : ".4309641791742819",
        "semi_major_axis" : ".9202509533250682",
        "inclination" : "14.77752337592535",
        "ascending_node_longitude" : "227.1663944146484",
        "orbital_period" : "322.4466289354041",
        "perihelion_distance" : ".5236557565909798",
        "perihelion_argument" : "136.4340797370743",
        "aphelion_distance" : "1.316846150059157",
        "perihelion_time" : "2458114.157665132387",
        "mean_anomaly" : "233.105327282376",
        "mean_motion" : "1.116463835235564",
        "equinox" : "J2000"
      }
    }, {
      "links" : {
        "self" : "https://api.nasa.gov/neo/rest/v1/neo/3654239?api_key=t0TVs3DtDT2H8Oy2Zy8m2eVrNsAVKAexjcZXUckd"
      },
      "neo_reference_id" : "3654239",
      "name" : "(2013 WM106)",
      "nasa_jpl_url" : "http://ssd.jpl.nasa.gov/sbdb.cgi?sstr=3654239",
      "absolute_magnitude_h" : 19.5,
      "estimated_diameter" : {
        "kilometers" : {
          "estimated_diameter_min" : 0.3346223745,
          "estimated_diameter_max" : 0.7482383761
        },
        "meters" : {
          "estimated_diameter_min" : 334.6223744549,
          "estimated_diameter_max" : 748.2383760735
        },
        "miles" : {
          "estimated_diameter_min" : 0.2079246394,
          "estimated_diameter_max" : 0.464933628
        },
        "feet" : {
          "estimated_diameter_min" : 1097.8424710066,
          "estimated_diameter_max" : 2454.8503937571
        }
      },
      "is_potentially_hazardous_asteroid" : false,
      "close_approach_data" : [ {
        "close_approach_date" : "2013-05-15",
        "epoch_date_close_approach" : 1368601200000,
        "relative_velocity" : {
          "kilometers_per_second" : "24.8940876566",
          "kilometers_per_hour" : "89618.7155635865",
          "miles_per_hour" : "55685.5846789407"
        },
        "miss_distance" : {
          "astronomical" : "0.3853232648",
          "lunar" : "149.8907470703",
          "kilometers" : "57643540",
          "miles" : "35818036"
        },
        "orbiting_body" : "Earth"
      } ],
      "orbital_data" : {
        "orbit_id" : "8",
        "orbit_determination_date" : "2017-04-06 08:43:26",
        "orbit_uncertainty" : "7",
        "minimum_orbit_intersection" : ".0569872",
        "jupiter_tisserand_invariant" : "3.178",
        "epoch_osculation" : "2458000.5",
        "eccentricity" : ".6387949972942815",
        "semi_major_axis" : "2.444029656009112",
        "inclination" : "5.816253689743959",
        "ascending_node_longitude" : "141.8953599186823",
        "orbital_period" : "1395.590915924754",
        "perihelion_distance" : ".8827957385116278",
        "perihelion_argument" : "169.2036062163673",
        "aphelion_distance" : "4.005263573506597",
        "perihelion_time" : "2457864.577740636151",
        "mean_anomaly" : "35.06186004267748",
        "mean_motion" : ".2579552474096285",
        "equinox" : "J2000"
      }
    } ]
  }
}